NORAD_CAT_ID,OBJECT_NAME,OBJECT_TYPE,EPOCH,MEAN_MOTION,ECCENTRICITY,INCLINATION,RA_OF_ASC_NODE,ARG_OF_PERICENTER,MEAN_ANOMALY,BSTAR,MEAN_MOTION_DOT,MEAN_MOTION_DDOT,TLE_LINE0,TLE_LINE1,TLE_LINE2,SEMIMAJOR_AXIS,PERIOD,APOGEE,PERIGEE,DECAYED
56452.0,STARLINK-5986,PAYLOAD,2024-03-31 12:11:19,14.98315162,0.0003058,69.9986,130.1833,270.0303,90.0506,0.000122,1.362e-05,0.0,0 STARLINK-5986,1 56452U 23064E   24091.50785990  .00001362  00000-0  12200-3 0  9996,2 56452  69.9986 130.1833 0003058 270.0303  90.0506 14.98315162 49161,6950.239,96.108,574.229,569.978,0.0
56452.0,STARLINK-5986,PAYLOAD,2024-03-31 20:11:59,14.98318137,0.0003083,69.9985,129.3415,266.4593,93.6213,0.00011019,1.222e-05,0.0,0 STARLINK-5986,1 56452U 23064E   24091.84166104  .00001222  00000-0  11019-3 0  9995,2 56452  69.9985 129.3415 0003083 266.4593  93.6213 14.98318137 49219,6950.23,96.108,574.237,569.952,0.0
56452.0,STARLINK-5986,PAYLOAD,2024-04-01 12:13:20,14.98322855,0.0003067,69.9985,127.6583,270.1348,89.946,0.0001256,1.406e-05,0.0,0 STARLINK-5986,1 56452U 23064E   24092.50926248  .00001406  00000-0  12560-3 0  9998,2 56452  69.9985 127.6583 0003067 270.1348  89.9460 14.98322855 49672,6950.215,96.107,574.212,569.948,0.0
56452.0,STARLINK-5986,PAYLOAD,2024-04-02 12:15:20,14.98332325,0.0003071,69.9984,125.1332,270.4565,89.6243,8.8719e-05,9.66e-06,0.0,0 STARLINK-5986,1 56452U 23064E   24093.51065899  .00000966  00000-0  88719-4 0  9996,2 56452  69.9984 125.1332 0003071 270.4565  89.6243 14.98332325 49821,6950.186,96.107,574.185,569.916,0.0
56452.0,STARLINK-5986,PAYLOAD,2024-04-03 12:17:22,14.98329445,0.0003028,69.9984,122.6082,270.9926,89.0886,-5.3174e-07,-9.9e-07,0.0,0 STARLINK-5986,1 56452U 23064E   24094.51206286 -.00000099  00000-0 -53174-6 0  9992,2 56452  69.9984 122.6082 0003028 270.9926  89.0886 14.98329445 49975,6950.195,96.107,574.164,569.955,0.0
56452.0,STARLINK-5986,PAYLOAD,2024-04-03 18:41:54,14.98331139,0.0003037,69.9984,121.9348,271.0192,89.0619,5.1645e-06,-3.1e-07,0.0,0 STARLINK-5986,1 56452U 23064E   24094.77910135 -.00000031  00000-0  51645-5 0  9990,2 56452  69.9984 121.9348 0003037 271.0192  89.0619 14.98331139 49651,6950.189,96.107,574.165,569.944,0.0
56452.0,STARLINK-5986,PAYLOAD,2024-04-04 10:43:14,14.98333774,0.0003035,69.9982,120.2517,269.9884,90.0928,-1.9485e-05,-3.26e-06,0.0,0 STARLINK-5986,1 56452U 23064E   24095.44669872 -.00000326  00000-0 -19485-4 0  9997,2 56452  69.9982 120.2517 0003035 269.9884  90.0928 14.98333774 49754,6950.181,96.107,574.156,569.937,0.0
56452.0,STARLINK-5986,PAYLOAD,2024-04-04 18:43:55,14.98332126,0.0003024,69.9983,119.41,269.856,90.2253,-8.1519e-06,-1.9e-06,0.0,0 STARLINK-5986,1 56452U 23064E   24095.78049869 -.00000190  00000-0 -81519-5 0  9999,2 56452  69.9983 119.4100 0003024 269.8560  90.2253 14.98332126 50161,6950.186,96.107,574.153,569.95,0.0
56452.0,STARLINK-5986,PAYLOAD,2024-04-05 10:45:15,14.98329741,0.0003067,69.9981,117.7265,269.5211,90.5596,8.302e-06,6e-08,0.0,0 STARLINK-5986,1 56452U 23064E   24096.44809905  .00000006  00000-0  83020-5 0  9991,2 56452  69.9981 117.7265 0003067 269.5211  90.5596 14.98329741 49901,6950.194,96.107,574.19,569.927,0.0
56452.0,STARLINK-5986,PAYLOAD,2024-04-05 18:45:56,14.9832875,0.0003106,69.998,116.8848,270.5009,89.5794,-1.2657e-05,-2.44e-06,0.0,0 STARLINK-5986,1 56452U 23064E   24096.78190007 -.00000244  00000-0 -12657-4 0  9997,2 56452  69.9980 116.8848 0003106 270.5009  89.5794 14.98328750 50312,6950.197,96.107,574.22,569.903,0.0
56452.0,STARLINK-5986,PAYLOAD,2024-04-06 09:11:08,14.98327152,0.0003093,69.9981,115.3699,270.4142,89.6663,-4.6512e-05,-6.48e-06,0.0,0 STARLINK-5986,1 56452U 23064E   24097.38274263 -.00000648  00000-0 -46512-4 0  9996,2 56452  69.9981 115.3699 0003093 270.4142  89.6663 14.98327152 50044,6950.202,96.107,574.216,569.917,0.0
56452.0,STARLINK-5986,PAYLOAD,2024-04-06 18:47:57,14.9832729,0.0003095,69.9981,114.3598,270.4996,89.5809,-3.0342e-05,-4.55e-06,0.0,0 STARLINK-5986,1 56452U 23064E   24097.78330262 -.00000455  00000-0 -30342-4 0  9992,2 56452  69.9981 114.3598 0003095 270.4996  89.5809 14.98327290 50460,6950.201,96.107,574.217,569.915,0.0
56452.0,STARLINK-5986,PAYLOAD,2024-04-07 09:13:09,14.98328726,0.0003139,69.998,112.8449,270.7695,89.3104,-1.4935e-06,-1.11e-06,0.0,0 STARLINK-5986,1 56452U 23064E   24098.38414140 -.00000111  00000-0 -14935-5 0  9997,2 56452  69.9980 112.8449 0003139 270.7695  89.3104 14.98328726 50196,6950.197,96.107,574.243,569.88,0.0
56452.0,STARLINK-5986,PAYLOAD,2024-04-07 18:49:58,14.983291,0.0003114,69.9982,111.8347,270.6989,89.3813,1.5746e-05,9.5e-07,0.0,0 STARLINK-5986,1 56452U 23064E   24098.78470101  .00000095  00000-0  15746-4 0  9999,2 56452  69.9982 111.8347 0003114 270.6989  89.3813 14.98329100 50613,6950.196,96.107,574.225,569.896,0.0
56452.0,STARLINK-5986,PAYLOAD,2024-04-08 10:51:18,14.98330657,0.0003151,69.9981,110.1513,270.7285,89.3513,6.6482e-05,7e-06,0.0,0 STARLINK-5986,1 56452U 23064E   24099.45229858  .00000700  00000-0  66482-4 0  9991,2 56452  69.9981 110.1513 0003151 270.7285  89.3513 14.98330657 50357,6950.191,96.107,574.246,569.866,0.0
56452.0,STARLINK-5986,PAYLOAD,2024-04-09 04:28:47,14.9833213,0.0003132,69.9981,108.2997,270.7364,89.3436,3.6422e-05,3.42e-06,0.0,0 STARLINK-5986,1 56452U 23064E   24100.18665773  .00000342  00000-0  36422-4 0  9997,2 56452  69.9981 108.2997 0003132 270.7364  89.3436 14.98332130 50822,6950.186,96.107,574.228,569.875,0.0
56452.0,STARLINK-5986,PAYLOAD,2024-04-09 10:53:17,14.98354183,0.0003042,69.9983,107.6263,270.6537,89.4273,0.00026614,3.086e-05,0.0,0 STARLINK-5986,1 56452U 23064E   24100.45367457  .00003086  00000-0  26614-3 0  9994,2 56452  69.9983 107.6263 0003042 270.6537  89.4273 14.98354183 50860,6950.118,96.105,574.097,569.869,0.0
56452.0,STARLINK-5986,PAYLOAD,2024-04-09 17:17:50,14.98382515,0.0002334,70.0014,106.9526,284.4939,75.5961,-0.00069476,-8.384e-05,0.0,0 STARLINK-5986,1 56452U 23064E   24100.72071863 -.00008384  00000-0 -69476-3 0  9998,2 56452  70.0014 106.9526 0002334 284.4939  75.5961 14.98382515 50549,6950.03,96.104,573.518,570.273,0.0
56452.0,STARLINK-5986,PAYLOAD,2024-04-10 06:06:56,14.98327547,0.0002958,69.9984,105.6065,273.9226,86.1595,-8.8182e-05,-1.145e-05,0.0,0 STARLINK-5986,1 56452U 23064E   24101.25481768 -.00001145  00000-0 -88182-4 0  9990,2 56452  69.9984 105.6065 0002958 273.9226  86.1595 14.98327547 50983,6950.2,96.107,574.121,570.01,0.0
56452.0,STARLINK-5986,PAYLOAD,2024-04-10 09:19:12,14.98326284,0.000305,69.9982,105.2697,272.545,87.536,-0.00010001,-1.286e-05,0.0,0 STARLINK-5986,1 56452U 23064E   24101.38833889 -.00001286  00000-0 -10001-3 0  9999,2 56452  69.9982 105.2697 0003050 272.5450  87.5360 14.98326284 50641,6950.204,96.107,574.189,569.95,0.0
56452.0,STARLINK-5986,PAYLOAD,2024-04-10 17:19:52,14.98329266,0.0002957,69.9988,104.4282,271.5299,88.5521,-0.00013162,-1.663e-05,0.0,0 STARLINK-5986,1 56452U 23064E   24101.72213797 -.00001663  00000-0 -13162-3 0  9997,2 56452  69.9988 104.4282 0002957 271.5299  88.5521 14.98329266 50691,6950.195,96.107,574.115,570.005,0.0
56452.0,STARLINK-5986,PAYLOAD,2024-04-11 06:08:57,14.9832851,0.0003207,69.9981,103.0811,278.0908,81.9887,-4.9906e-05,-6.88e-06,0.0,0 STARLINK-5986,1 56452U 23064E   24102.25621644 -.00000688  00000-0 -49906-4 0  9992,2 56452  69.9981 103.0811 0003207 278.0908  81.9887 14.98328510 51138,6950.197,96.107,574.291,569.834,0.0
56452.0,STARLINK-5986,PAYLOAD,2024-04-11 10:57:21,14.98330201,0.0003112,69.9981,102.576,277.8286,82.252,-8.301e-05,-1.083e-05,0.0,0 STARLINK-5986,1 56452U 23064E   24102.45649624 -.00001083  00000-0 -83010-4 0  9996,2 56452  69.9981 102.5760 0003112 277.8286  82.2520 14.98330201 50807,6950.192,96.107,574.22,569.894,0.0
56452.0,STARLINK-5986,PAYLOAD,2024-04-11 17:21:53,14.98337313,0.0003027,69.9982,101.9028,272.1063,87.9749,-0.00022441,-2.77e-05,0.0,0 STARLINK-5986,1 56452U 23064E   24102.72353384 -.00002770  00000-0 -22441-3 0  9995,2 56452  69.9982 101.9028 0003027 272.1063  87.9749 14.98337313 50844,6950.17,96.107,574.139,569.931,0.0
56452.0,STARLINK-5986,PAYLOAD,2024-04-12 09:23:14,14.98323109,0.0003036,69.9982,100.2192,273.1372,86.944,5.6934e-05,5.86e-06,0.0,0 STARLINK-5986,1 56452U 23064E   24103.39113737  .00000586  00000-0  56934-4 0  9991,2 56452  69.9982 100.2192 0003036 273.1372  86.9440 14.98323109 51309,6950.214,96.107,574.189,569.969,0.0
56452.0,STARLINK-5986,PAYLOAD,2024-04-13 09:25:15,14.98329043,0.0003016,69.9984,97.6945,273.4229,86.6585,5.5209e-05,5.66e-06,0.0,0 STARLINK-5986,1 56452U 23064E   24104.39253599  .00000566  00000-0  55209-4 0  9995,2 56452  69.9984  97.6945 0003016 273.4229  86.6585 14.98329043 51454,6950.196,96.107,574.157,569.965,0.0
56452.0,STARLINK-5986,PAYLOAD,2024-04-14 09:27:15,14.9833134,0.0002954,69.9986,95.1703,269.7618,90.3202,5.1385e-05,5.2e-06,0.0,0 STARLINK-5986,1 56452U 23064E   24105.39393459  .00000520  00000-0  51385-4 0  9997,2 56452  69.9986  95.1703 0002954 269.7618  90.3202 14.98331340 51609,6950.189,96.107,574.107,570.001,0.0
56452.0,STARLINK-5986,PAYLOAD,2024-04-15 09:29:17,14.98329774,0.0002577,69.9998,92.6456,264.9489,95.1376,1.5727e-05,9.5e-07,0.0,0 STARLINK-5986,1 56452U 23064E   24106.39533568  .00000095  00000-0  15727-4 0  9992,2 56452  69.9998  92.6456 0002577 264.9489  95.1376 14.98329774 51752,6950.194,96.107,573.85,570.268,0.0
56452.0,STARLINK-5986,PAYLOAD,2024-04-16 07:55:09,14.98333714,0.0002848,69.9995,90.2886,269.0519,91.0313,4.7186e-05,4.7e-06,0.0,0 STARLINK-5986,1 56452U 23064E   24107.32997044  .00000470  00000-0  47186-4 0  9990,2 56452  69.9995  90.2886 0002848 269.0519  91.0313 14.98333714 51532,6950.181,96.107,574.026,570.067,0.0
56452.0,STARLINK-5986,PAYLOAD,2024-04-16 15:55:49,14.98333722,0.0002664,70.0002,89.4467,268.7371,91.3483,-6.5087e-06,-1.71e-06,0.0,0 STARLINK-5986,1 56452U 23064E   24107.66377160 -.00000171  00000-0 -65087-5 0  9999,2 56452  70.0002  89.4467 0002664 268.7371  91.3483 14.98333722 51942,6950.181,96.107,573.898,570.195,0.0
